[
    {
      "CCSDS_CDM_VERS": "1.0",
      "CREATION_DATE": "2024-10-05T10:59:22.033",
      "ORIGINATOR": "CSpoc",
      "MESSAGE_ID": "6530_conj4_1024",
      "TCA": "2024-10-05T17:10:36.475",
      "MISS_DISTANCE": "14510",
      "SAT1_OBJECT": "OBJECT1",
      "SAT1_OBJECT_DESIGNATOR": "12345",
      "SAT1_CATALOG_NAME": "SATCAT",
      "SAT1_INTERNATIONAL_DESIGNATOR": "2019-030E",
      "SAT1_EPHEMERIS_NAME": "NONE",
      "SAT1_COVARIANCE_METHOD": "CALCULATED",
      "SAT1_MANEUVERABLE": "NO",
      "SAT1_REFERENCE_FRAME": "ITRF",
      "SAT1_X": "2569.097065",
      "SAT1_Y": "2245.654904",
      "SAT1_Z": "6281.497978",
      "SAT1_X_DOT": "4.418769571",
      "SAT1_Y_DOT": "4.833547743",
      "SAT1_Z_DOT": "-3.526774282",
      "SAT1_CR_R": "11.506860000000005",
      "SAT1_CT_R": "1248.036661134601",
      "SAT1_CT_T": "259.5581000000001",
      "SAT1_CN_R": "17.916002509223198",
      "SAT1_CN_T": "245.7711485383819",
      "SAT1_CN_N": "3.8349209999999996",
      "SAT1_CRDOT_R": "0.00022726939999999785",
      "SAT1_CRDOT_T": "-0.05799527808110657",
      "SAT1_CRDOT_N": "-0.00021179419934301688",
      "SAT1_CRDOT_RDOT": "0.00022726939999999785",
      "SAT1_CTDOT_R": "-0.00015491341398556023",
      "SAT1_CTDOT_T": "-0.0015060774553316179",
      "SAT1_CTDOT_N": "-2.0952096822822975e-05",
      "SAT1_CTDOT_RDOT": "1.4689758301709094e-09",
      "SAT1_CTDOT_TDOT": "1.3466079999999983e-05",
      "SAT1_CNDOT_R": "2.6661413068295898e-05",
      "SAT1_CNDOT_T": "0.00031937485126386103",
      "SAT1_CNDOT_N": "2.1609511370945364e-05",
      "SAT1_CNDOT_RDOT": "-3.382421549510018e-10",
      "SAT1_CNDOT_TDOT": "-3.128348087699916e-11",
      "SAT1_CNDOT_NDOT": "1.0368329999999764e-05",
      "SAT2_OBJECT": "OBJECT1",
      "SAT2_OBJECT_DESIGNATOR": "67891",
      "SAT2_CATALOG_NAME": "SATCAT",
      "SAT2_INTERNATIONAL_DESIGNATOR": "2021-030E",
      "SAT2_EPHEMERIS_NAME": "NONE",
      "SAT2_COVARIANCE_METHOD": "CALCULATED",
      "SAT2_MANEUVERABLE": "YES",
      "SAT2_REFERENCE_FRAME": "ITRF",
      "SAT2_X": "4659.49413",
      "SAT2_Y": "-1319.7901920000004",
      "SAT2_Z": "25850.995956",
      "SAT2_X_DOT": "15.837539142",
      "SAT2_Y_DOT": "12646.667095485998",
      "SAT2_Z_DOT": "5518.846451436",
      "SAT2_CR_R": "67978.79000000001",
      "SAT2_CT_R": "-162130280857593.2",
      "SAT2_CT_T": "2922881000.0",
      "SAT2_CN_R": "71696592.84559105",
      "SAT2_CN_T": "-25896048808.354958",
      "SAT2_CN_N": "2171.0660000000007",
      "SAT2_CRDOT_R": "3357.8220000000006",
      "SAT2_CRDOT_T": "-9814496912200.408",
      "SAT2_CRDOT_N": "37010.43898900366",
      "SAT2_CRDOT_RDOT": "3357.8220000000006",
      "SAT2_CTDOT_R": "-1332.471339849396",
      "SAT2_CTDOT_T": "15492739.465907317",
      "SAT2_CTDOT_N": "-47.89920848575927",
      "SAT2_CTDOT_RDOT": "-17.854404929205973",
      "SAT2_CTDOT_TDOT": "0.026952349999999986",
      "SAT2_CNDOT_R": "2657.53461602947",
      "SAT2_CNDOT_T": "85412367.9110327",
      "SAT2_CNDOT_N": "234.04549101615999",
      "SAT2_CNDOT_RDOT": "-98.23003979101016",
      "SAT2_CNDOT_TDOT": "-0.0027243267415416354",
      "SAT2_CNDOT_NDOT": "0.14929579999999992"
    }
  ]